GLOBALSTAR M075         
1 37192U 10054E   24320.86218594 -.00000102  00000+0  12182-4 0  9997
2 37192  51.9932 111.0629 0000821 101.1258  51.5947 12.62269100648909
GLOBALSTAR M073         
1 37193U 10054F   24321.46500720 -.00000088  00000+0  85773-4 0  9999
2 37193  52.0084  22.8846 0000414 136.5729 236.6946 12.62272514651028
GLOBALSTAR M083         
1 37739U 11033A   24320.48197330 -.00000079  00000+0  13564-3 0  9991
2 37739  51.9875 334.9022 0000473 100.8876  63.2445 12.62267952619869
GLOBALSTAR M088         
1 37740U 11033B   24321.48638312 -.00000074  00000+0  16355-3 0  9990
2 37740  51.9729 237.5123 0000850  72.4158  98.9044 12.62265077615823
GLOBALSTAR M091         
1 37741U 11033C   24321.18421948 -.00000053  00000+0  28370-3 0  9990
2 37741  51.9983 201.6097 0001202  87.0972  89.0015 12.62270706616540
GLOBALSTAR M085         
1 37742U 11033D   24320.92553962 -.00000081  00000+0  12487-3 0  9997
2 37742  51.9841 153.6220 0001255  97.3600  43.9269 12.62269395616764
GLOBALSTAR M081         
1 37743U 11033E   24320.87048382 -.00000069  00000+0  19223-3 0  9998
2 37743  51.9929 156.4450 0001103 107.6659  23.1571 12.62263819616906
GLOBALSTAR M089         
1 37744U 11033F   24321.44701704 -.00000109  00000+0 -28981-4 0  9995
2 37744  51.9913 108.9565 0000616 110.7710 300.3231 12.62272465618070
